{
  "type": "FeatureCollection",
  "features": [
    {
      "type": "Feature",
      "properties": {
        "norad_id": 38833,
        "name": "GPS BIIF-3  (PRN 24)",
        "group": "gps-ops",
        "lat": 6.087758388120315,
        "lon": 155.92905974830126,
        "alt_km": 19917.63645289067,
        "timestamp": "2025-12-08T08:59:01.024448+00:00",
        "meta_object_name": "GPS BIIF-3  (PRN 24)",
        "meta_object_id": "2012-053A",
        "meta_epoch": "2025-12-07T08:48:17.210304",
        "meta_mean_motion": 2.00564894,
        "meta_eccentricity": 0.01756357,
        "meta_inclination": 53.5567,
        "meta_ra_of_asc_node": 151.4587,
        "meta_arg_of_pericenter": 63.9203,
        "meta_mean_anomaly": 297.8751,
        "meta_ephemeris_type": 0,
        "meta_classification_type": "U",
        "meta_norad_cat_id": 38833,
        "meta_element_set_no": 999,
        "meta_rev_at_epoch": 9559,
        "meta_bstar": 0,
        "meta_mean_motion_dot": 5.3e-07,
        "meta_mean_motion_ddot": 0,
        "tle_line1": "1 38833U 12053A   25341.36686586  .00000053  00000+0  00000+0 0  9995",
        "tle_line2": "2 38833  53.5567 151.4587 0175635  63.9203 297.8751  2.00564894 95594"
      },
      "geometry": {
        "type": "Point",
        "coordinates": [
          155.92905974830126,
          6.087758388120315
        ]
      }
    },
    {
      "type": "Feature",
      "properties": {
        "norad_id": 39166,
        "name": "GPS BIIF-4  (PRN 27)",
        "group": "gps-ops",
        "lat": 50.804226930105465,
        "lon": 36.38104880637217,
        "alt_km": 19988.052022100615,
        "timestamp": "2025-12-08T08:59:01.024459+00:00",
        "meta_object_name": "GPS BIIF-4  (PRN 27)",
        "meta_object_id": "2013-023A",
        "meta_epoch": "2025-12-07T05:32:23.722368",
        "meta_mean_motion": 2.00565063,
        "meta_eccentricity": 0.01375641,
        "meta_inclination": 54.6569,
        "meta_ra_of_asc_node": 276.7922,
        "meta_arg_of_pericenter": 48.5542,
        "meta_mean_anomaly": 312.6301,
        "meta_ephemeris_type": 0,
        "meta_classification_type": "U",
        "meta_norad_cat_id": 39166,
        "meta_element_set_no": 999,
        "meta_rev_at_epoch": 9203,
        "meta_bstar": 0,
        "meta_mean_motion_dot": -3.4e-07,
        "meta_mean_motion_ddot": 0,
        "tle_line1": "1 39166U 13023A   25341.23083012 -.00000034  00000+0  00000+0 0  9994",
        "tle_line2": "2 39166  54.6569 276.7922 0137564  48.5542 312.6301  2.00565063 92038"
      },
      "geometry": {
        "type": "Point",
        "coordinates": [
          36.38104880637217,
          50.804226930105465
        ]
      }
    },
    {
      "type": "Feature",
      "properties": {
        "norad_id": 39533,
        "name": "GPS BIIF-5  (PRN 30)",
        "group": "gps-ops",
        "lat": 49.79448451313515,
        "lon": -83.61842258159454,
        "alt_km": 20272.81740259651,
        "timestamp": "2025-12-08T08:59:01.024471+00:00",
        "meta_object_name": "GPS BIIF-5  (PRN 30)",
        "meta_object_id": "2014-008A",
        "meta_epoch": "2025-12-07T17:22:04.649088",
        "meta_mean_motion": 2.00574086,
        "meta_eccentricity": 0.007908,
        "meta_inclination": 53.6303,
        "meta_ra_of_asc_node": 157.1293,
        "meta_arg_of_pericenter": 226.426,
        "meta_mean_anomaly": 132.9228,
        "meta_ephemeris_type": 0,
        "meta_classification_type": "U",
        "meta_norad_cat_id": 39533,
        "meta_element_set_no": 999,
        "meta_rev_at_epoch": 8584,
        "meta_bstar": 0,
        "meta_mean_motion_dot": 5.5e-07,
        "meta_mean_motion_ddot": 0,
        "tle_line1": "1 39533U 14008A   25341.72366492  .00000055  00000+0  00000+0 0  9998",
        "tle_line2": "2 39533  53.6303 157.1293 0079080 226.4260 132.9228  2.00574086 85843"
      },
      "geometry": {
        "type": "Point",
        "coordinates": [
          -83.61842258159454,
          49.79448451313515
        ]
      }
    },
    {
      "type": "Feature",
      "properties": {
        "norad_id": 39741,
        "name": "GPS BIIF-6  (PRN 06)",
        "group": "gps-ops",
        "lat": -56.22853964772181,
        "lon": -120.24427585501361,
        "alt_km": 20126.221174364568,
        "timestamp": "2025-12-08T08:59:01.024482+00:00",
        "meta_object_name": "GPS BIIF-6  (PRN 06)",
        "meta_object_id": "2014-026A",
        "meta_epoch": "2025-12-07T12:11:28.594176",
        "meta_mean_motion": 2.00561597,
        "meta_eccentricity": 0.00390407,
        "meta_inclination": 56.5857,
        "meta_ra_of_asc_node": 338.9799,
        "meta_arg_of_pericenter": 318.3816,
        "meta_mean_anomaly": 41.333,
        "meta_ephemeris_type": 0,
        "meta_classification_type": "U",
        "meta_norad_cat_id": 39741,
        "meta_element_set_no": 999,
        "meta_rev_at_epoch": 8469,
        "meta_bstar": 0,
        "meta_mean_motion_dot": -8.2e-07,
        "meta_mean_motion_ddot": 0,
        "tle_line1": "1 39741U 14026A   25341.50796984 -.00000082  00000+0  00000+0 0  9999",
        "tle_line2": "2 39741  56.5857 338.9799 0039040 318.3816  41.3330  2.00561597 84692"
      },
      "geometry": {
        "type": "Point",
        "coordinates": [
          -120.24427585501361,
          -56.22853964772181
        ]
      }
    },
    {
      "type": "Feature",
      "properties": {
        "norad_id": 40105,
        "name": "GPS BIIF-7  (PRN 09)",
        "group": "gps-ops",
        "lat": -18.629374533077605,
        "lon": -70.40318004720557,
        "alt_km": 20173.239108568203,
        "timestamp": "2025-12-08T08:59:01.024494+00:00",
        "meta_object_name": "GPS BIIF-7  (PRN 09)",
        "meta_object_id": "2014-045A",
        "meta_epoch": "2025-12-07T14:17:59.496864",
        "meta_mean_motion": 2.00572139,
        "meta_eccentricity": 0.00328259,
        "meta_inclination": 55.2261,
        "meta_ra_of_asc_node": 96.1042,
        "meta_arg_of_pericenter": 119.7348,
        "meta_mean_anomaly": 240.5718,
        "meta_ephemeris_type": 0,
        "meta_classification_type": "U",
        "meta_norad_cat_id": 40105,
        "meta_element_set_no": 999,
        "meta_rev_at_epoch": 8223,
        "meta_bstar": 0,
        "meta_mean_motion_dot": -4e-08,
        "meta_mean_motion_ddot": 0,
        "tle_line1": "1 40105U 14045A   25341.59582751 -.00000004  00000+0  00000+0 0  9994",
        "tle_line2": "2 40105  55.2261  96.1042 0032825 119.7348 240.5718  2.00572139 82239"
      },
      "geometry": {
        "type": "Point",
        "coordinates": [
          -70.40318004720557,
          -18.629374533077605
        ]
      }
    },
    {
      "type": "Feature",
      "properties": {
        "norad_id": 40294,
        "name": "GPS BIIF-8  (PRN 03)",
        "group": "gps-ops",
        "lat": -51.574865155727565,
        "lon": -17.05171247665238,
        "alt_km": 20308.812532827425,
        "timestamp": "2025-12-08T08:59:01.024505+00:00",
        "meta_object_name": "GPS BIIF-8  (PRN 03)",
        "meta_object_id": "2014-068A",
        "meta_epoch": "2025-12-05T23:27:53.798400",
        "meta_mean_motion": 2.00564264,
        "meta_eccentricity": 0.00608121,
        "meta_inclination": 56.8528,
        "meta_ra_of_asc_node": 38.4077,
        "meta_arg_of_pericenter": 69.3337,
        "meta_mean_anomaly": 291.3749,
        "meta_ephemeris_type": 0,
        "meta_classification_type": "U",
        "meta_norad_cat_id": 40294,
        "meta_element_set_no": 999,
        "meta_rev_at_epoch": 8133,
        "meta_bstar": 0,
        "meta_mean_motion_dot": -6.8e-07,
        "meta_mean_motion_ddot": 0,
        "tle_line1": "1 40294U 14068A   25339.97770600 -.00000068  00000+0  00000+0 0  9999",
        "tle_line2": "2 40294  56.8528  38.4077 0060812  69.3337 291.3749  2.00564264 81331"
      },
      "geometry": {
        "type": "Point",
        "coordinates": [
          -17.05171247665238,
          -51.574865155727565
        ]
      }
    },
    {
      "type": "Feature",
      "properties": {
        "norad_id": 40534,
        "name": "GPS BIIF-9  (PRN 26)",
        "group": "gps-ops",
        "lat": -14.19785707147196,
        "lon": 42.99624012031702,
        "alt_km": 20449.916123936753,
        "timestamp": "2025-12-08T08:59:01.024517+00:00",
        "meta_object_name": "GPS BIIF-9  (PRN 26)",
        "meta_object_id": "2015-013A",
        "meta_epoch": "2025-12-07T14:28:59.851200",
        "meta_mean_motion": 2.00562814,
        "meta_eccentricity": 0.01068213,
        "meta_inclination": 53.1985,
        "meta_ra_of_asc_node": 212.103,
        "meta_arg_of_pericenter": 38.3543,
        "meta_mean_anomaly": 322.4903,
        "meta_ephemeris_type": 0,
        "meta_classification_type": "U",
        "meta_norad_cat_id": 40534,
        "meta_element_set_no": 999,
        "meta_rev_at_epoch": 7798,
        "meta_bstar": 0,
        "meta_mean_motion_dot": 3.4e-07,
        "meta_mean_motion_ddot": 0,
        "tle_line1": "1 40534U 15013A   25341.60347050  .00000034  00000+0  00000+0 0  9991",
        "tle_line2": "2 40534  53.1985 212.1030 0106821  38.3543 322.4903  2.00562814 77984"
      },
      "geometry": {
        "type": "Point",
        "coordinates": [
          42.99624012031702,
          -14.19785707147196
        ]
      }
    }
  ]
}